"{\n    \"CCSDS_OMM_VERS\": \"2.0\",\n    \"COMMENT\": \"GENERATED VIA SPACE-TRACK.ORG API\",\n    \"CREATION_DATE\": \"2025-08-31T02:26:50\",\n    \"ORIGINATOR\": \"18 SPCS\",\n    \"OBJECT_NAME\": \"BEIDOU 3M11\",\n    \"OBJECT_ID\": \"2018-067A\",\n    \"CENTER_NAME\": \"EARTH\",\n    \"REF_FRAME\": \"TEME\",\n    \"TIME_SYSTEM\": \"UTC\",\n    \"MEAN_ELEMENT_THEORY\": \"SGP4\",\n    \"EPOCH\": \"2025-08-30T09:56:27.101184\",\n    \"MEAN_MOTION\": \"1.8622769619\",\n    \"ECCENTRICITY\": \"0.00078976206\",\n    \"INCLINATION\": \"54.190628\",\n    \"RA_OF_ASC_NODE\": \"190.90122\",\n    \"ARG_OF_PERICENTER\": \"28.178786\",\n    \"MEAN_ANOMALY\": \"331.8459\",\n    \"EPHEMERIS_TYPE\": \"0\",\n    \"CLASSIFICATION_TYPE\": \"U\",\n    \"NORAD_CAT_ID\": \"43602\",\n    \"ELEMENT_SET_NO\": \"999\",\n    \"REV_AT_EPOCH\": \"4770\",\n    \"BSTAR\": \"0\",\n    \"MEAN_MOTION_DOT\": \"0.000000328434\",\n    \"MEAN_MOTION_DDOT\": \"0\",\n    \"TLE_LINE0\": \"0 BEIDOU 3M11\",\n    \"TLE_LINE1\": \"1 43602U 18067A   25242.41420256  .00000033  00000-0  00000-0 0  9992\",\n    \"TLE_LINE2\": \"2 43602  54.1906 190.9012 0007898  28.1788 331.8459  1.86227696 47708\",\n    \"SEMIMAJOR_AXIS\": \"27906.519\",\n    \"PERIOD\": \"773.247\",\n    \"APOAPSIS\": \"21550.423\",\n    \"PERIAPSIS\": \"21506.344\",\n    \"OBJECT_TYPE\": \"PAYLOAD\",\n    \"DECAYED\": \"0\"\n}"